IRIDIUM 126             
1 42809U 17039G   25297.95896945  .00000221  00000+0  71690-4 0  9994
2 42809  86.3925  91.9828 0002233  88.3155 271.8297 14.34218463436235
IRIDIUM 124             
1 42810U 17039H   25297.74352690  .00000417  00000+0  11788-3 0  9995
2 42810  86.4536  28.7803 0002059  91.1120 269.0317 14.43278350441157
IRIDIUM 128             
1 42811U 17039J   25297.94972470  .00000142  00000+0  43608-4 0  9994
2 42811  86.3937 123.5199 0001680  82.1004 278.0382 14.34217357436262
IRIDIUM 121             
1 42812U 17039K   25297.97799660 -.00000089  00000+0 -39006-4 0  9995
2 42812  86.3925  92.0011 0001807  92.8557 267.2846 14.34216907436114
IRIDIUM 133             
1 42955U 17061A   25297.98141923  .00000056  00000+0  13087-4 0  9995
2 42955  86.3939 123.6185 0002025  87.2550 272.8877 14.34217887421066
IRIDIUM 100             
1 42956U 17061B   25297.97507571  .00000084  00000+0  22878-4 0  9999
2 42956  86.3936 123.5453 0002094  83.9030 276.2404 14.34217770421068
IRIDIUM 122             
1 42957U 17061C   25297.94336449 -.00000074  00000+0 -33431-4 0  9999
2 42957  86.3940 123.5581 0001972  84.5355 275.6066 14.34216851421063
IRIDIUM 129             
1 42958U 17061D   25297.96873336  .00000140  00000+0  43056-4 0  9999
2 42958  86.3938 123.6120 0002398  94.0880 266.0590 14.34217919421087
